GEOSCAN-3 (RS92S3)
1 64893U 25155T   26187.34952958  .00018400  00000-0  52454-3 0  9993
2 64893  97.4548 157.4586 0008521 110.0574 250.1588 15.36088782 83793
INNOSAT3 (RS92S0)
1 64894U 25155U   26187.36017604  .00039730  00000-0  83142-3 0  9993
2 64894  97.4494 159.3344 0008303 110.3550 249.8591 15.45318467 83922
KNACKSAT-2
1 67683U 98067XZ  26187.43025761  .00050889  00000-0  57855-3 0  9995
2 67683  51.6265 197.5608 0008260 296.8985  63.1164 15.61755488 23282
