OBJECT_NAME,OBJECT_ID,EPOCH,MEAN_MOTION,ECCENTRICITY,INCLINATION,RA_OF_ASC_NODE,ARG_OF_PERICENTER,MEAN_ANOMALY,EPHEMERIS_TYPE,CLASSIFICATION_TYPE,NORAD_CAT_ID,ELEMENT_SET_NO,REV_AT_EPOCH,BSTAR,MEAN_MOTION_DOT,MEAN_MOTION_DDOT
GEOSCAN 3 (RS92S3),2025-155T,2026-07-06T08:23:19.355712,15.36088782,.00085207,97.4548,157.4586,110.0574,250.1588,0,U,64893,999,8379,.52454385E-3,.184E-3,0
INNOSAT 3 (RS92S0),2025-155U,2026-07-06T08:38:39.209856,15.45318467,.00083033,97.4494,159.3344,110.3550,249.8591,0,U,64894,999,8392,.83141724E-3,.3973E-3,0
KNACKSAT-2,1998-067XZ,2026-07-06T10:19:34.257504,15.61755488,.00082597,51.6265,197.5608,296.8985,63.1164,0,U,67683,999,2328,.57854596E-3,.50889E-3,0
